STARLINK-31849          
1 59734U 24090E   26068.32231498 -.00004557  00000+0 -15615-3 0  9990
2 59734  42.9996 178.6774 0000243 296.9087  63.1739 15.27592743103467
PELICAN-6               
1 66703U 25276AP  26068.70709364  .00077979  00000+0  29726-2 0  9998
2 66703  97.4276 144.2072 0003569 157.8575 202.2819 15.26377980 15334
